O3B MPOWER F1           
1 54755U 22174A   24050.78542351 -.00000029  00000+0  00000+0 0  9998
2 54755   0.0628   8.3780 0006378 331.5132 342.3453  5.00118435 22917
